{"type": "FeatureCollection", "features": [ {"type": "Feature", "properties": {"norad_id": 39122, "name": "EUTELSAT 117 WEST A", "group": "eutelsat", "lat": 0.00860388483235089, "lon": 150.20123153600724, "alt_km": 35794.01913249867, "timestamp": "2025-12-27T11:23:19.549119+00:00", "meta": {"OBJECT_NAME": "EUTELSAT 117 WEST A", "OBJECT_ID": "2013-012A", "EPOCH": "2025-12-27T02:10:25.425120", "MEAN_MOTION": 1.00270814, "ECCENTRICITY": 0.0002869, "INCLINATION": 0.0147, "RA_OF_ASC_NODE": 334.3903, "ARG_OF_PERICENTER": 305.0792, "MEAN_ANOMALY": 92.162, "EPHEMERIS_TYPE": 0, "CLASSIFICATION_TYPE": "U", "NORAD_CAT_ID": 39122, "ELEMENT_SET_NO": 999, "REV_AT_EPOCH": 4670, "BSTAR": 0, "MEAN_MOTION_DOT": 1e-07, "MEAN_MOTION_DDOT": 0}, "tle": {"line1": "1 39122U 13012A   25361.09057205  .00000010  00000+0  00000+0 0  9998", "line2": "2 39122   0.0147 334.3903 0002869 305.0792  92.1620  1.00270814 46707"}}, "geometry": {"type": "Point", "coordinates": [150.20123153600724, 0.00860388483235089]}}, {"type": "Feature", "properties": {"norad_id": 39163, "name": "EUTELSAT 7B", "group": "eutelsat", "lat": -0.08515749988629254, "lon": -86.01717674811508, "alt_km": 35772.57434803533, "timestamp": "2025-12-27T11:23:19.549131+00:00", "meta": {"OBJECT_NAME": "EUTELSAT 7B", "OBJECT_ID": "2013-022A", "EPOCH": "2025-12-27T02:45:44.542368", "MEAN_MOTION": 1.00271932, "ECCENTRICITY": 0.0004772, "INCLINATION": 0.0671, "RA_OF_ASC_NODE": 13.2831, "ARG_OF_PERICENTER": 308.949, "MEAN_ANOMALY": 182.0483, "EPHEMERIS_TYPE": 0, "CLASSIFICATION_TYPE": "U", "NORAD_CAT_ID": 39163, "ELEMENT_SET_NO": 999, "REV_AT_EPOCH": 4622, "BSTAR": 0, "MEAN_MOTION_DOT": 7e-07, "MEAN_MOTION_DDOT": 0}, "tle": {"line1": "1 39163U 13022A   25361.11509887  .00000070  00000+0  00000+0 0  9991", "line2": "2 39163   0.0671  13.2831 0004772 308.9490 182.0483  1.00271932 46224"}}, "geometry": {"type": "Point", "coordinates": [-86.01717674811508, -0.08515749988629254]}}, {"type": "Feature", "properties": {"norad_id": 39612, "name": "EXPRESS-AT1", "group": "eutelsat", "lat": -0.0017248433025692524, "lon": -36.972146743736964, "alt_km": 35789.509719672125, "timestamp": "2025-12-27T11:23:19.549143+00:00", "meta": {"OBJECT_NAME": "EXPRESS-AT1", "OBJECT_ID": "2014-010A", "EPOCH": "2025-12-27T04:42:15.496416", "MEAN_MOTION": 1.002729, "ECCENTRICITY": 8.93e-05, "INCLINATION": 0.0153, "RA_OF_ASC_NODE": 289.8864, "ARG_OF_PERICENTER": 213.189, "MEAN_ANOMALY": 79.4173, "EPHEMERIS_TYPE": 0, "CLASSIFICATION_TYPE": "U", "NORAD_CAT_ID": 39612, "ELEMENT_SET_NO": 999, "REV_AT_EPOCH": 4309, "BSTAR": 0, "MEAN_MOTION_DOT": 1.01e-06, "MEAN_MOTION_DDOT": 0}, "tle": {"line1": "1 39612U 14010A   25361.19601269  .00000101  00000+0  00000+0 0  9998", "line2": "2 39612   0.0153 289.8864 0000893 213.1890  79.4173  1.00272900 43099"}}, "geometry": {"type": "Point", "coordinates": [-36.972146743736964, -0.0017248433025692524]}}, {"type": "Feature", "properties": {"norad_id": 39613, "name": "EXPRESS-AT2", "group": "eutelsat", "lat": 0.028885093647086652, "lon": 46.90249559764171, "alt_km": 35791.01675730562, "timestamp": "2025-12-27T11:23:19.549166+00:00", "meta": {"OBJECT_NAME": "EXPRESS-AT2", "OBJECT_ID": "2014-010B", "EPOCH": "2025-12-27T05:06:28.176768", "MEAN_MOTION": 1.00270807, "ECCENTRICITY": 0.0001702, "INCLINATION": 0.0177, "RA_OF_ASC_NODE": 326.4541, "ARG_OF_PERICENTER": 310.4356, "MEAN_ANOMALY": 35.5342, "EPHEMERIS_TYPE": 0, "CLASSIFICATION_TYPE": "U", "NORAD_CAT_ID": 39613, "ELEMENT_SET_NO": 999, "REV_AT_EPOCH": 4277, "BSTAR": 0, "MEAN_MOTION_DOT": -2.59e-06, "MEAN_MOTION_DDOT": 0}, "tle": {"line1": "1 39613U 14010B   25361.21282612 -.00000259  00000+0  00000+0 0  9994", "line2": "2 39613   0.0177 326.4541 0001702 310.4356  35.5342  1.00270807 42773"}}, "geometry": {"type": "Point", "coordinates": [46.90249559764171, 0.028885093647086652]}}, {"type": "Feature", "properties": {"norad_id": 39773, "name": "EUTELSAT 3B", "group": "eutelsat", "lat": -0.07808895119430781, "lon": -89.85258466089806, "alt_km": 35771.31533127272, "timestamp": "2025-12-27T11:23:19.549188+00:00", "meta": {"OBJECT_NAME": "EUTELSAT 3B", "OBJECT_ID": "2014-030A", "EPOCH": "2025-12-27T02:44:37.147776", "MEAN_MOTION": 1.00270441, "ECCENTRICITY": 0.0004313, "INCLINATION": 0.06, "RA_OF_ASC_NODE": 353.8386, "ARG_OF_PERICENTER": 242.3071, "MEAN_ANOMALY": 263.9517, "EPHEMERIS_TYPE": 0, "CLASSIFICATION_TYPE": "U", "NORAD_CAT_ID": 39773, "ELEMENT_SET_NO": 999, "REV_AT_EPOCH": 4234, "BSTAR": 0, "MEAN_MOTION_DOT": 4.2e-07, "MEAN_MOTION_DDOT": 0}, "tle": {"line1": "1 39773U 14030A   25361.11431884  .00000042  00000+0  00000+0 0  9998", "line2": "2 39773   0.0600 353.8386 0004313 242.3071 263.9517  1.00270441 42348"}}, "geometry": {"type": "Point", "coordinates": [-89.85258466089806, -0.07808895119430781]}}, {"type": "Feature", "properties": {"norad_id": 40425, "name": "EUTELSAT 115 WEST B", "group": "eutelsat", "lat": -0.0023942745132961778, "lon": 152.13087638819871, "alt_km": 35785.616963995206, "timestamp": "2025-12-27T11:23:19.549202+00:00", "meta": {"OBJECT_NAME": "EUTELSAT 115 WEST B", "OBJECT_ID": "2015-010B", "EPOCH": "2025-12-26T05:44:38.581152", "MEAN_MOTION": 1.00273604, "ECCENTRICITY": 7.8e-06, "INCLINATION": 0.0077, "RA_OF_ASC_NODE": 147.8651, "ARG_OF_PERICENTER": 258.8043, "MEAN_ANOMALY": 19.571, "EPHEMERIS_TYPE": 0, "CLASSIFICATION_TYPE": "U", "NORAD_CAT_ID": 40425, "ELEMENT_SET_NO": 999, "REV_AT_EPOCH": 3965, "BSTAR": 0, "MEAN_MOTION_DOT": -3e-08, "MEAN_MOTION_DDOT": 0}, "tle": {"line1": "1 40425U 15010B   25360.23933543 -.00000003  00000+0  00000+0 0  9992", "line2": "2 40425   0.0077 147.8651 0000078 258.8043  19.5710  1.00273604 39657"}}, "geometry": {"type": "Point", "coordinates": [152.13087638819871, -0.0023942745132961778]}}, {"type": "Feature", "properties": {"norad_id": 40875, "name": "EUTELSAT 8 WEST B", "group": "eutelsat", "lat": -0.07757811556327504, "lon": -100.98924148134377, "alt_km": 35769.21890889087, "timestamp": "2025-12-27T11:23:19.549215+00:00", "meta": {"OBJECT_NAME": "EUTELSAT 8 WEST B", "OBJECT_ID": "2015-039B", "EPOCH": "2025-12-27T02:41:29.948352", "MEAN_MOTION": 1.00271427, "ECCENTRICITY": 0.00042, "INCLINATION": 0.0654, "RA_OF_ASC_NODE": 13.2614, "ARG_OF_PERICENTER": 263.0943, "MEAN_ANOMALY": 211.8634, "EPHEMERIS_TYPE": 0, "CLASSIFICATION_TYPE": "U", "NORAD_CAT_ID": 40875, "ELEMENT_SET_NO": 999, "REV_AT_EPOCH": 3793, "BSTAR": 0, "MEAN_MOTION_DOT": -4.3e-07, "MEAN_MOTION_DDOT": 0}, "tle": {"line1": "1 40875U 15039B   25361.11215218 -.00000043  00000+0  00000+0 0  9996", "line2": "2 40875   0.0654  13.2614 0004200 263.0943 211.8634  1.00271427 37932"}}, "geometry": {"type": "Point", "coordinates": [-100.98924148134377, -0.07757811556327504]}}, {"type": "Feature", "properties": {"norad_id": 41310, "name": "EUTELSAT 9B", "group": "eutelsat", "lat": -0.03716592381594909, "lon": -83.98412887873671, "alt_km": 35766.4135703704, "timestamp": "2025-12-27T11:23:19.549227+00:00", "meta": {"OBJECT_NAME": "EUTELSAT 9B", "OBJECT_ID": "2016-005A", "EPOCH": "2025-12-26T23:20:53.280960", "MEAN_MOTION": 1.00270022, "ECCENTRICITY": 0.0004755, "INCLINATION": 0.0291, "RA_OF_ASC_NODE": 50.6098, "ARG_OF_PERICENTER": 225.6856, "MEAN_ANOMALY": 178.6271, "EPHEMERIS_TYPE": 0, "CLASSIFICATION_TYPE": "U", "NORAD_CAT_ID": 41310, "ELEMENT_SET_NO": 999, "REV_AT_EPOCH": 3639, "BSTAR": 0, "MEAN_MOTION_DOT": 8.4e-07, "MEAN_MOTION_DDOT": 0}, "tle": {"line1": "1 41310U 16005A   25360.97283890  .00000084  00000+0  00000+0 0  9993", "line2": "2 41310   0.0291  50.6098 0004755 225.6856 178.6271  1.00270022 36393"}}, "geometry": {"type": "Point", "coordinates": [-83.98412887873671, -0.03716592381594909]}}, {"type": "Feature", "properties": {"norad_id": 41382, "name": "EUTELSAT 65 WEST A", "group": "eutelsat", "lat": -0.030801331337112187, "lon": -158.18118331087368, "alt_km": 35784.177412578225, "timestamp": "2025-12-27T11:23:19.549239+00:00", "meta": {"OBJECT_NAME": "EUTELSAT 65 WEST A", "OBJECT_ID": "2016-014A", "EPOCH": "2025-12-27T04:03:58.415904", "MEAN_MOTION": 1.00270796, "ECCENTRICITY": 0.0002416, "INCLINATION": 0.0469, "RA_OF_ASC_NODE": 349.5635, "ARG_OF_PERICENTER": 289.757, "MEAN_ANOMALY": 172.3953, "EPHEMERIS_TYPE": 0, "CLASSIFICATION_TYPE": "U", "NORAD_CAT_ID": 41382, "ELEMENT_SET_NO": 999, "REV_AT_EPOCH": 3581, "BSTAR": 0, "MEAN_MOTION_DOT": -2.54e-06, "MEAN_MOTION_DDOT": 0}, "tle": {"line1": "1 41382U 16014A   25361.16942611 -.00000254  00000+0  00000+0 0  9997", "line2": "2 41382   0.0469 349.5635 0002416 289.7570 172.3953  1.00270796 35814"}}, "geometry": {"type": "Point", "coordinates": [-158.18118331087368, -0.030801331337112187]}}, {"type": "Feature", "properties": {"norad_id": 41589, "name": "EUTELSAT 117 WEST B", "group": "eutelsat", "lat": -0.003412234783464023, "lon": 150.02478381055036, "alt_km": 35785.8917263168, "timestamp": "2025-12-27T11:23:19.549250+00:00", "meta": {"OBJECT_NAME": "EUTELSAT 117 WEST B", "OBJECT_ID": "2016-038B", "EPOCH": "2025-12-27T02:10:25.425120", "MEAN_MOTION": 1.00273209, "ECCENTRICITY": 5.4e-06, "INCLINATION": 0.0089, "RA_OF_ASC_NODE": 156.8895, "ARG_OF_PERICENTER": 185.3917, "MEAN_ANOMALY": 29.1448, "EPHEMERIS_TYPE": 0, "CLASSIFICATION_TYPE": "U", "NORAD_CAT_ID": 41589, "ELEMENT_SET_NO": 999, "REV_AT_EPOCH": 3493, "BSTAR": 0, "MEAN_MOTION_DOT": 1.1e-07, "MEAN_MOTION_DDOT": 0}, "tle": {"line1": "1 41589U 16038B   25361.09057205  .00000011  00000+0  00000+0 0  9990", "line2": "2 41589   0.0089 156.8895 0000054 185.3917  29.1448  1.00273209 34932"}}, "geometry": {"type": "Point", "coordinates": [150.02478381055036, -0.003412234783464023]}}]}